{"type": "FeatureCollection", "features": [ {"type": "Feature", "properties": {"norad_id": 66566, "name": "STARLINK-35871", "group": "last-30-days", "lat": -20.037578468625416, "lon": 132.60849524289435, "alt_km": 386.5581891555885, "timestamp": "2025-12-06T20:37:54.813602+00:00", "meta": {"OBJECT_NAME": "STARLINK-35871", "OBJECT_ID": "2025-268K", "EPOCH": "2025-12-06T14:00:01.999872", "MEAN_MOTION": 15.62104823, "ECCENTRICITY": 0.00014513, "INCLINATION": 43.0001, "RA_OF_ASC_NODE": 157.2926, "ARG_OF_PERICENTER": 259.7293, "MEAN_ANOMALY": 315.0649, "EPHEMERIS_TYPE": 0, "CLASSIFICATION_TYPE": "U", "NORAD_CAT_ID": 66566, "ELEMENT_SET_NO": 999, "REV_AT_EPOCH": 368, "BSTAR": -0.025245452, "MEAN_MOTION_DOT": -0.01998809, "MEAN_MOTION_DDOT": 0}, "tle": {"line1": "1 66566U 25268K   25340.58335648 -.01998809  00000+0 -25245-1 0  9992", "line2": "2 66566  43.0001 157.2926 0001451 259.7293 315.0649 15.62104823  3686"}}, "geometry": {"type": "Point", "coordinates": [132.60849524289435, -20.037578468625416]}}, {"type": "Feature", "properties": {"norad_id": 66567, "name": "STARLINK-35825", "group": "last-30-days", "lat": -18.828735303208326, "lon": 134.18005683285682, "alt_km": 386.47843876451134, "timestamp": "2025-12-06T20:37:54.813615+00:00", "meta": {"OBJECT_NAME": "STARLINK-35825", "OBJECT_ID": "2025-268L", "EPOCH": "2025-12-06T14:00:01.999872", "MEAN_MOTION": 15.62106177, "ECCENTRICITY": 0.00013892, "INCLINATION": 43, "RA_OF_ASC_NODE": 157.288, "ARG_OF_PERICENTER": 260.8347, "MEAN_ANOMALY": 315.8765, "EPHEMERIS_TYPE": 0, "CLASSIFICATION_TYPE": "U", "NORAD_CAT_ID": 66567, "ELEMENT_SET_NO": 999, "REV_AT_EPOCH": 368, "BSTAR": -0.025269017, "MEAN_MOTION_DOT": -0.02000492, "MEAN_MOTION_DDOT": 0}, "tle": {"line1": "1 66567U 25268L   25340.58335648 -.02000492  00000+0 -25269-1 0  9992", "line2": "2 66567  43.0000 157.2880 0001389 260.8347 315.8765 15.62106177  3689"}}, "geometry": {"type": "Point", "coordinates": [134.18005683285682, -18.828735303208326]}}, {"type": "Feature", "properties": {"norad_id": 66568, "name": "STARLINK-35803", "group": "last-30-days", "lat": -17.607242784667562, "lon": 135.7279829626756, "alt_km": 386.47840948374596, "timestamp": "2025-12-06T20:37:54.813625+00:00", "meta": {"OBJECT_NAME": "STARLINK-35803", "OBJECT_ID": "2025-268M", "EPOCH": "2025-12-06T14:00:01.999872", "MEAN_MOTION": 15.62104987, "ECCENTRICITY": 0.00014092, "INCLINATION": 42.9999, "RA_OF_ASC_NODE": 157.2829, "ARG_OF_PERICENTER": 256.5957, "MEAN_ANOMALY": 322.0311, "EPHEMERIS_TYPE": 0, "CLASSIFICATION_TYPE": "U", "NORAD_CAT_ID": 66568, "ELEMENT_SET_NO": 999, "REV_AT_EPOCH": 368, "BSTAR": -0.025220579, "MEAN_MOTION_DOT": -0.01997062, "MEAN_MOTION_DDOT": 0}, "tle": {"line1": "1 66568U 25268M   25340.58335648 -.01997062  00000+0 -25221-1 0  9998", "line2": "2 66568  42.9999 157.2829 0001409 256.5957 322.0311 15.62104987  3684"}}, "geometry": {"type": "Point", "coordinates": [135.7279829626756, -17.607242784667562]}}, {"type": "Feature", "properties": {"norad_id": 66569, "name": "STARLINK-35835", "group": "last-30-days", "lat": -16.37290087737029, "lon": 137.2565219653384, "alt_km": 386.3813385103058, "timestamp": "2025-12-06T20:37:54.813635+00:00", "meta": {"OBJECT_NAME": "STARLINK-35835", "OBJECT_ID": "2025-268N", "EPOCH": "2025-12-06T14:00:01.999872", "MEAN_MOTION": 15.62104238, "ECCENTRICITY": 0.00013888, "INCLINATION": 42.9998, "RA_OF_ASC_NODE": 157.2783, "ARG_OF_PERICENTER": 257.6896, "MEAN_ANOMALY": 322.8559, "EPHEMERIS_TYPE": 0, "CLASSIFICATION_TYPE": "U", "NORAD_CAT_ID": 66569, "ELEMENT_SET_NO": 999, "REV_AT_EPOCH": 368, "BSTAR": -0.025224621, "MEAN_MOTION_DOT": -0.01997276, "MEAN_MOTION_DDOT": 0}, "tle": {"line1": "1 66569U 25268N   25340.58335648 -.01997276  00000+0 -25225-1 0  9990", "line2": "2 66569  42.9998 157.2783 0001388 257.6896 322.8559 15.62104238  3684"}}, "geometry": {"type": "Point", "coordinates": [137.2565219653384, -16.37290087737029]}}, {"type": "Feature", "properties": {"norad_id": 66570, "name": "STARLINK-35834", "group": "last-30-days", "lat": -15.127085859234148, "lon": 138.7655759605807, "alt_km": 386.24900429895115, "timestamp": "2025-12-06T20:37:54.813646+00:00", "meta": {"OBJECT_NAME": "STARLINK-35834", "OBJECT_ID": "2025-268P", "EPOCH": "2025-12-06T14:00:01.999872", "MEAN_MOTION": 15.62103939, "ECCENTRICITY": 0.00013968, "INCLINATION": 43.0001, "RA_OF_ASC_NODE": 157.2727, "ARG_OF_PERICENTER": 260.0515, "MEAN_ANOMALY": 322.4131, "EPHEMERIS_TYPE": 0, "CLASSIFICATION_TYPE": "U", "NORAD_CAT_ID": 66570, "ELEMENT_SET_NO": 999, "REV_AT_EPOCH": 368, "BSTAR": -0.025234669, "MEAN_MOTION_DOT": -0.01997959, "MEAN_MOTION_DDOT": 0}, "tle": {"line1": "1 66570U 25268P   25340.58335648 -.01997959  00000+0 -25235-1 0  9991", "line2": "2 66570  43.0001 157.2727 0001396 260.0515 322.4131 15.62103939  3685"}}, "geometry": {"type": "Point", "coordinates": [138.7655759605807, -15.127085859234148]}}, {"type": "Feature", "properties": {"norad_id": 66571, "name": "STARLINK-35836", "group": "last-30-days", "lat": -13.872114278342474, "lon": 140.2565756386766, "alt_km": 386.1836478463538, "timestamp": "2025-12-06T20:37:54.813656+00:00", "meta": {"OBJECT_NAME": "STARLINK-35836", "OBJECT_ID": "2025-268Q", "EPOCH": "2025-12-06T14:00:01.999872", "MEAN_MOTION": 15.62106091, "ECCENTRICITY": 0.00013852, "INCLINATION": 42.9999, "RA_OF_ASC_NODE": 157.2681, "ARG_OF_PERICENTER": 258.7702, "MEAN_ANOMALY": 325.6098, "EPHEMERIS_TYPE": 0, "CLASSIFICATION_TYPE": "U", "NORAD_CAT_ID": 66571, "ELEMENT_SET_NO": 999, "REV_AT_EPOCH": 368, "BSTAR": -0.02526045, "MEAN_MOTION_DOT": -0.01999888, "MEAN_MOTION_DDOT": 0}, "tle": {"line1": "1 66571U 25268Q   25340.58335648 -.01999888  00000+0 -25260-1 0  9993", "line2": "2 66571  42.9999 157.2681 0001385 258.7702 325.6098 15.62106091  3688"}}, "geometry": {"type": "Point", "coordinates": [140.2565756386766, -13.872114278342474]}}, {"type": "Feature", "properties": {"norad_id": 66572, "name": "STARLINK-35870", "group": "last-30-days", "lat": -12.608265290891335, "lon": 141.73207208203857, "alt_km": 386.1041582406215, "timestamp": "2025-12-06T20:37:54.813666+00:00", "meta": {"OBJECT_NAME": "STARLINK-35870", "OBJECT_ID": "2025-268R", "EPOCH": "2025-12-06T14:00:01.999872", "MEAN_MOTION": 15.6210136, "ECCENTRICITY": 0.00013363, "INCLINATION": 42.9996, "RA_OF_ASC_NODE": 157.2643, "ARG_OF_PERICENTER": 258.3682, "MEAN_ANOMALY": 327.9316, "EPHEMERIS_TYPE": 0, "CLASSIFICATION_TYPE": "U", "NORAD_CAT_ID": 66572, "ELEMENT_SET_NO": 999, "REV_AT_EPOCH": 368, "BSTAR": -0.025177907, "MEAN_MOTION_DOT": -0.01993795, "MEAN_MOTION_DDOT": 0}, "tle": {"line1": "1 66572U 25268R   25340.58335648 -.01993795  00000+0 -25178-1 0  9993", "line2": "2 66572  42.9996 157.2643 0001336 258.3682 327.9316 15.62101360  3685"}}, "geometry": {"type": "Point", "coordinates": [141.73207208203857, -12.608265290891335]}}, {"type": "Feature", "properties": {"norad_id": 66573, "name": "STARLINK-35650", "group": "last-30-days", "lat": -11.336401535807159, "lon": 143.19090761176562, "alt_km": 385.9415859456103, "timestamp": "2025-12-06T20:37:54.813678+00:00", "meta": {"OBJECT_NAME": "STARLINK-35650", "OBJECT_ID": "2025-268S", "EPOCH": "2025-12-06T14:00:01.999872", "MEAN_MOTION": 15.62103954, "ECCENTRICITY": 0.00014799, "INCLINATION": 42.9996, "RA_OF_ASC_NODE": 157.2583, "ARG_OF_PERICENTER": 260.6113, "MEAN_ANOMALY": 327.6015, "EPHEMERIS_TYPE": 0, "CLASSIFICATION_TYPE": "U", "NORAD_CAT_ID": 66573, "ELEMENT_SET_NO": 999, "REV_AT_EPOCH": 368, "BSTAR": -0.025198173, "MEAN_MOTION_DOT": -0.01995489, "MEAN_MOTION_DDOT": 0}, "tle": {"line1": "1 66573U 25268S   25340.58335648 -.01995489  00000+0 -25198-1 0  9998", "line2": "2 66573  42.9996 157.2583 0001479 260.6113 327.6015 15.62103954  3686"}}, "geometry": {"type": "Point", "coordinates": [143.19090761176562, -11.336401535807159]}}, {"type": "Feature", "properties": {"norad_id": 66574, "name": "STARLINK-35812", "group": "last-30-days", "lat": -10.056080232245467, "lon": 144.63914183546083, "alt_km": 385.87488478592604, "timestamp": "2025-12-06T20:37:54.813691+00:00", "meta": {"OBJECT_NAME": "STARLINK-35812", "OBJECT_ID": "2025-268T", "EPOCH": "2025-12-06T14:00:01.999872", "MEAN_MOTION": 15.62106506, "ECCENTRICITY": 0.00014084, "INCLINATION": 42.9997, "RA_OF_ASC_NODE": 157.2532, "ARG_OF_PERICENTER": 259.4073, "MEAN_ANOMALY": 330.7243, "EPHEMERIS_TYPE": 0, "CLASSIFICATION_TYPE": "U", "NORAD_CAT_ID": 66574, "ELEMENT_SET_NO": 999, "REV_AT_EPOCH": 368, "BSTAR": -0.025283087, "MEAN_MOTION_DOT": -0.02001505, "MEAN_MOTION_DDOT": 0}, "tle": {"line1": "1 66574U 25268T   25340.58335648 -.02001505  00000+0 -25283-1 0  9992", "line2": "2 66574  42.9997 157.2532 0001408 259.4073 330.7243 15.62106506  3689"}}, "geometry": {"type": "Point", "coordinates": [144.63914183546083, -10.056080232245467]}}, {"type": "Feature", "properties": {"norad_id": 66575, "name": "STARLINK-35810", "group": "last-30-days", "lat": -8.771344690062458, "lon": 146.07427443631857, "alt_km": 385.786244988667, "timestamp": "2025-12-06T20:37:54.813701+00:00", "meta": {"OBJECT_NAME": "STARLINK-35810", "OBJECT_ID": "2025-268U", "EPOCH": "2025-12-06T14:00:01.999872", "MEAN_MOTION": 15.62107609, "ECCENTRICITY": 0.00015145, "INCLINATION": 42.9998, "RA_OF_ASC_NODE": 157.2486, "ARG_OF_PERICENTER": 258.1691, "MEAN_ANOMALY": 333.8752, "EPHEMERIS_TYPE": 0, "CLASSIFICATION_TYPE": "U", "NORAD_CAT_ID": 66575, "ELEMENT_SET_NO": 999, "REV_AT_EPOCH": 368, "BSTAR": -0.025258808, "MEAN_MOTION_DOT": -0.01999977, "MEAN_MOTION_DDOT": 0}, "tle": {"line1": "1 66575U 25268U   25340.58335648 -.01999977  00000+0 -25259-1 0  9994", "line2": "2 66575  42.9998 157.2486 0001514 258.1691 333.8752 15.62107609  3683"}}, "geometry": {"type": "Point", "coordinates": [146.07427443631857, -8.771344690062458]}}]}